{
  "type": "FeatureCollection",
  "features": [
    {
      "type": "Feature",
      "properties": {
        "norad_id": 15362,
        "name": "NOVA 3",
        "group": "nnss",
        "lat": 80.38640146859989,
        "lon": 79.98806971665745,
        "alt_km": 1185.4455607590799,
        "timestamp": "2025-12-27T08:36:18.650815+00:00",
        "meta_object_name": "NOVA 3",
        "meta_object_id": "1984-110A",
        "meta_epoch": "2025-12-27T04:53:11.725152",
        "meta_mean_motion": 13.2304649,
        "meta_eccentricity": 0.0029836,
        "meta_inclination": 90.1216,
        "meta_ra_of_asc_node": 80.7046,
        "meta_arg_of_pericenter": 290.1469,
        "meta_mean_anomaly": 132.5367,
        "meta_ephemeris_type": 0,
        "meta_classification_type": "U",
        "meta_norad_cat_id": 15362,
        "meta_element_set_no": 999,
        "meta_rev_at_epoch": 98890,
        "meta_bstar": 0.00018678,
        "meta_mean_motion_dot": 8.7e-07,
        "meta_mean_motion_ddot": 0,
        "tle_line1": "1 15362U 84110A   25361.20360793  .00000087  00000+0  18678-3 0  9995",
        "tle_line2": "2 15362  90.1216  80.7046 0029836 290.1469 132.5367 13.23046490988905"
      },
      "geometry": {
        "type": "Point",
        "coordinates": [
          79.98806971665745,
          80.38640146859989
        ]
      }
    },
    {
      "type": "Feature",
      "properties": {
        "norad_id": 15935,
        "name": "OSCAR 30",
        "group": "nnss",
        "lat": 52.00363763172256,
        "lon": -79.70226357996694,
        "alt_km": 1105.775602554504,
        "timestamp": "2025-12-27T08:36:18.650825+00:00",
        "meta_object_name": "OSCAR 30",
        "meta_object_id": "1985-066A",
        "meta_epoch": "2025-12-27T04:27:45.006912",
        "meta_mean_motion": 13.36080792,
        "meta_eccentricity": 0.0168712,
        "meta_inclination": 90.1653,
        "meta_ra_of_asc_node": 100.0832,
        "meta_arg_of_pericenter": 43.5126,
        "meta_mean_anomaly": 332.7393,
        "meta_ephemeris_type": 0,
        "meta_classification_type": "U",
        "meta_norad_cat_id": 15935,
        "meta_element_set_no": 999,
        "meta_rev_at_epoch": 96646,
        "meta_bstar": 0.00017205,
        "meta_mean_motion_dot": 1.05e-06,
        "meta_mean_motion_ddot": 0,
        "tle_line1": "1 15935U 85066A   25361.18593758  .00000105  00000+0  17205-3 0  9994",
        "tle_line2": "2 15935  90.1653 100.0832 0168712  43.5126 332.7393 13.36080792966469"
      },
      "geometry": {
        "type": "Point",
        "coordinates": [
          -79.70226357996694,
          52.00363763172256
        ]
      }
    },
    {
      "type": "Feature",
      "properties": {
        "norad_id": 15936,
        "name": "OSCAR 24",
        "group": "nnss",
        "lat": -15.077940714026466,
        "lon": -87.48429683261334,
        "alt_km": 1233.4802927864157,
        "timestamp": "2025-12-27T08:36:18.650836+00:00",
        "meta_object_name": "OSCAR 24",
        "meta_object_id": "1985-066B",
        "meta_epoch": "2025-12-27T04:08:09.356064",
        "meta_mean_motion": 13.3593799,
        "meta_eccentricity": 0.0169903,
        "meta_inclination": 90.1791,
        "meta_ra_of_asc_node": 92.5607,
        "meta_arg_of_pericenter": 50.0065,
        "meta_mean_anomaly": 328.7739,
        "meta_ephemeris_type": 0,
        "meta_classification_type": "U",
        "meta_norad_cat_id": 15936,
        "meta_element_set_no": 999,
        "meta_rev_at_epoch": 96836,
        "meta_bstar": 0.0001534,
        "meta_mean_motion_dot": 9.5e-07,
        "meta_mean_motion_ddot": 0,
        "tle_line1": "1 15936U 85066B   25361.17233051  .00000095  00000+0  15340-3 0  9997",
        "tle_line2": "2 15936  90.1791  92.5607 0169903  50.0065 328.7739 13.35937990968366"
      },
      "geometry": {
        "type": "Point",
        "coordinates": [
          -87.48429683261334,
          -15.077940714026466
        ]
      }
    },
    {
      "type": "Feature",
      "properties": {
        "norad_id": 17070,
        "name": "POLAR BEAR",
        "group": "nnss",
        "lat": -64.23555309824657,
        "lon": -177.60588721775332,
        "alt_km": 1011.7560827202615,
        "timestamp": "2025-12-27T08:36:18.650846+00:00",
        "meta_object_name": "POLAR BEAR",
        "meta_object_id": "1986-088A",
        "meta_epoch": "2025-12-27T02:30:40.033728",
        "meta_mean_motion": 13.75253821,
        "meta_eccentricity": 0.0041249,
        "meta_inclination": 89.617,
        "meta_ra_of_asc_node": 183.1984,
        "meta_arg_of_pericenter": 77.9849,
        "meta_mean_anomaly": 41.7619,
        "meta_ephemeris_type": 0,
        "meta_classification_type": "U",
        "meta_norad_cat_id": 17070,
        "meta_element_set_no": 999,
        "meta_rev_at_epoch": 96176,
        "meta_bstar": 0.00011818,
        "meta_mean_motion_dot": 1.25e-06,
        "meta_mean_motion_ddot": 0,
        "tle_line1": "1 17070U 86088A   25361.10463002  .00000125  00000+0  11818-3 0  9997",
        "tle_line2": "2 17070  89.6170 183.1984 0041249  77.9849  41.7619 13.75253821961760"
      },
      "geometry": {
        "type": "Point",
        "coordinates": [
          -177.60588721775332,
          -64.23555309824657
        ]
      }
    },
    {
      "type": "Feature",
      "properties": {
        "norad_id": 18361,
        "name": "OSCAR 27",
        "group": "nnss",
        "lat": 38.047839511067394,
        "lon": 79.52631471387254,
        "alt_km": 1150.6284983614714,
        "timestamp": "2025-12-27T08:36:18.650886+00:00",
        "meta_object_name": "OSCAR 27",
        "meta_object_id": "1987-080A",
        "meta_epoch": "2025-12-27T03:03:22.132800",
        "meta_mean_motion": 13.44909733,
        "meta_eccentricity": 0.0104138,
        "meta_inclination": 90.3734,
        "meta_ra_of_asc_node": 79.8101,
        "meta_arg_of_pericenter": 182.4368,
        "meta_mean_anomaly": 177.6286,
        "meta_ephemeris_type": 0,
        "meta_classification_type": "U",
        "meta_norad_cat_id": 18361,
        "meta_element_set_no": 999,
        "meta_rev_at_epoch": 87750,
        "meta_bstar": 0.00017457,
        "meta_mean_motion_dot": 1.14e-06,
        "meta_mean_motion_ddot": 0,
        "tle_line1": "1 18361U 87080A   25361.12733950  .00000114  00000+0  17457-3 0  9991",
        "tle_line2": "2 18361  90.3734  79.8101 0104138 182.4368 177.6286 13.44909733877509"
      },
      "geometry": {
        "type": "Point",
        "coordinates": [
          79.52631471387254,
          38.047839511067394
        ]
      }
    },
    {
      "type": "Feature",
      "properties": {
        "norad_id": 18362,
        "name": "OSCAR 29",
        "group": "nnss",
        "lat": 26.806003147194975,
        "lon": 80.08949782633054,
        "alt_km": 1170.0804547639927,
        "timestamp": "2025-12-27T08:36:18.650913+00:00",
        "meta_object_name": "OSCAR 29",
        "meta_object_id": "1987-080B",
        "meta_epoch": "2025-12-27T03:11:36.452256",
        "meta_mean_motion": 13.44451165,
        "meta_eccentricity": 0.0104937,
        "meta_inclination": 90.3747,
        "meta_ra_of_asc_node": 80.2705,
        "meta_arg_of_pericenter": 205.5396,
        "meta_mean_anomaly": 170.683,
        "meta_ephemeris_type": 0,
        "meta_classification_type": "U",
        "meta_norad_cat_id": 18362,
        "meta_element_set_no": 999,
        "meta_rev_at_epoch": 87703,
        "meta_bstar": 0.00015592,
        "meta_mean_motion_dot": 1.02e-06,
        "meta_mean_motion_ddot": 0,
        "tle_line1": "1 18362U 87080B   25361.13306079  .00000102  00000+0  15592-3 0  9996",
        "tle_line2": "2 18362  90.3747  80.2705 0104937 205.5396 170.6830 13.44451165877032"
      },
      "geometry": {
        "type": "Point",
        "coordinates": [
          80.08949782633054,
          26.806003147194975
        ]
      }
    },
    {
      "type": "Feature",
      "properties": {
        "norad_id": 19070,
        "name": "OSCAR 23",
        "group": "nnss",
        "lat": 4.943340985913207,
        "lon": 16.81732326792166,
        "alt_km": 1256.3121544675296,
        "timestamp": "2025-12-27T08:36:18.650934+00:00",
        "meta_object_name": "OSCAR 23",
        "meta_object_id": "1988-033A",
        "meta_epoch": "2025-12-27T01:28:05.869056",
        "meta_mean_motion": 13.27789432,
        "meta_eccentricity": 0.0190612,
        "meta_inclination": 90.3203,
        "meta_ra_of_asc_node": 16.8358,
        "meta_arg_of_pericenter": 140.2127,
        "meta_mean_anomaly": 245.8061,
        "meta_ephemeris_type": 0,
        "meta_classification_type": "U",
        "meta_norad_cat_id": 19070,
        "meta_element_set_no": 999,
        "meta_rev_at_epoch": 82443,
        "meta_bstar": 0.00016493,
        "meta_mean_motion_dot": 9.2e-07,
        "meta_mean_motion_ddot": 0,
        "tle_line1": "1 19070U 88033A   25361.06117904  .00000092  00000+0  16493-3 0  9990",
        "tle_line2": "2 19070  90.3203  16.8358 0190612 140.2127 245.8061 13.27789432824436"
      },
      "geometry": {
        "type": "Point",
        "coordinates": [
          16.81732326792166,
          4.943340985913207
        ]
      }
    }
  ]
}